GLOBALSTAR M057 [-]     
1 25943U 99058A   24067.48076825 -.00000063  00000+0  26850-3 0  9996
2 25943  51.9961 232.6604 0003386 119.7223 240.3964 12.24781207109747
GLOBALSTAR M059 [-]     
1 25944U 99058B   24067.31155720 -.00000118  00000+0 -39980-3 0  9991
2 25944  52.0041  30.1962 0000588 100.5381  48.3267 11.99964154517998
GLOBALSTAR M056 [-]     
1 25945U 99058C   24068.08040321 -.00000116  00000+0 -33275-3 0  9996
2 25945  51.9980  42.0482 0001035 342.8397  94.5338 12.04772109106499
GLOBALSTAR M031 [-]     
1 25946U 99058D   24068.12591487  .00000040  00000+0  13274-2 0  9996
2 25946  51.9981 322.1438 0001287 342.5702 168.9941 12.16003394108089
GLOBALSTAR M039 [-]     
1 25961U 99062A   24067.54863056 -.00000039  00000+0  35918-3 0  9996
2 25961  51.9822 249.9562 0003358  48.0478 312.0674 12.62284185121319
GLOBALSTAR M034 [-]     
1 25962U 99062B   24067.50194875 -.00000008  00000+0  11568-2 0  9999
2 25962  51.9860 144.4750 0013957 237.3589 223.7083 11.79424537 83326
GLOBALSTAR M029 [-]     
1 25963U 99062C   24068.50573589 -.00000054  00000+0  39641-3 0  9998
2 25963  51.9790 275.4059 0001724 292.6183  75.3472 11.99874869113279
GLOBALSTAR M061 [-]     
1 25964U 99062D   24068.41780330 -.00000081  00000+0 -66735-5 0  9990
2 25964  51.9815 319.9598 0005952 162.8821   8.4833 11.76758615 66634
